[{"OBJECT_NAME":"STARLINK-3890","OBJECT_ID":"2022-049E","EPOCH":"2026-03-09T10:29:07.156032","MEAN_MOTION":15.08832427,"ECCENTRICITY":0.00013228,"INCLINATION":53.2171,"RA_OF_ASC_NODE":70.2571,"ARG_OF_PERICENTER":88.4768,"MEAN_ANOMALY":271.6376,"EPHEMERIS_TYPE":0,"CLASSIFICATION_TYPE":"U","NORAD_CAT_ID":52455,"ELEMENT_SET_NO":999,"REV_AT_EPOCH":21207,"BSTAR":-6.1410786e-5,"MEAN_MOTION_DOT":-1.265e-5,"MEAN_MOTION_DDOT":0},{"OBJECT_NAME":"JILIN-01 KUANFU 02B 6","OBJECT_ID":"2024-169F","EPOCH":"2026-03-09T21:43:38.712288","MEAN_MOTION":15.09238946,"ECCENTRICITY":0.00150747,"INCLINATION":97.5549,"RA_OF_ASC_NODE":159.9459,"ARG_OF_PERICENTER":324.4254,"MEAN_ANOMALY":35.5968,"EPHEMERIS_TYPE":0,"CLASSIFICATION_TYPE":"U","NORAD_CAT_ID":61194,"ELEMENT_SET_NO":999,"REV_AT_EPOCH":8086,"BSTAR":0.00036442477,"MEAN_MOTION_DOT":5.751e-5,"MEAN_MOTION_DDOT":0}]
